STARLINK-6206           
1 56876U 23083A   24308.13800251  .00007570  00000+0  57470-3 0  9999
2 56876  43.0026 233.1317 0000912 267.9059  92.1679 15.02546739 77728
STARLINK-6209           
1 56877U 23083B   24308.06375842  .00003510  00000+0  27486-3 0  9999
2 56877  43.0051 233.4346 0002115 257.0080 103.0526 15.02527651 77717
STARLINK-6182           
1 56878U 23083C   24308.20338182  .00013271  00000+0  99574-3 0  9994
2 56878  42.9994 232.7629 0000149 252.5782 107.5044 15.02530908 77737
STARLINK-5707           
1 56879U 23083D   24308.13356398  .00002745  00000+0  21819-3 0  9997
2 56879  43.0041 233.0992 0001291 268.9040  91.1655 15.02533191 77729
STARLINK-6177           
1 56880U 23083E   24308.52243880  .00001970  00000+0  16084-3 0  9990
2 56880  43.0027 230.8541 0001575 264.5771  95.4891 15.02535412 77781
STARLINK-5853           
1 56881U 23083F   24308.19778936  .00004756  00000+0  36658-3 0  9993
2 56881  43.0024 232.7230 0000778 305.4501  54.6268 15.02571192 77730
STARLINK-6175           
1 56882U 23083G   24308.51688438  .00012206  00000+0  91646-3 0  9994
2 56882  43.0072 230.8137 0001247 277.7015  82.3685 15.02560637 77780
STARLINK-6171           
1 56883U 23083H   24308.19449057  .00000995  00000+0  88708-4 0  9999
2 56883  43.0018 232.6876 0000987 247.9753 112.0984 15.02533297 77739
STARLINK-5515           
1 56884U 23083J   24308.51022323  .00013086  00000+0  98133-3 0  9996
2 56884  43.0010 230.7611 0001650 264.3447  95.7207 15.02560975 77782
STARLINK-5095           
1 56885U 23083K   24308.19115743  .00012724  00000+0  95472-3 0  9991
2 56885  43.0020 232.6686 0001566 274.6036  85.4628 15.02557738 77732
STARLINK-5496           
1 56886U 23083L   24308.50911280  .00002544  00000+0  20323-3 0  9999
2 56886  43.0061 230.7514 0000896 260.5513  99.5228 15.02554633 77784
STARLINK-6180           
1 56887U 23083M   24308.51355058  .00004565  00000+0  35261-3 0  9998
2 56887  43.0035 230.7863 0001428 265.5845  94.4834 15.02555826 77780
STARLINK-6181           
1 56888U 23083N   24308.49579849  .00003695  00000+0  28836-3 0  9995
2 56888  43.0018 230.6505 0001723 269.5517  90.5128 15.02546389 77789
STARLINK-6169           
1 56889U 23083P   24308.50578153  .00004092  00000+0  31767-3 0  9994
2 56889  43.0031 230.7289 0001575 266.3397  93.7265 15.02553666 77784
STARLINK-5528           
1 56890U 23083Q   24308.49690662  .00005677  00000+0  43484-3 0  9993
2 56890  43.0031 230.6611 0001705 268.2731  91.7916 15.02545583 77782
