[
	{
		"OBJECT_NAME": "STARLINK-6206",
		"OBJECT_ID": "2023-083A",
		"EPOCH": "2024-11-03T03:18:43.416864",
		"MEAN_MOTION": 15.02546739,
		"ECCENTRICITY": 9.12e-5,
		"INCLINATION": 43.0026,
		"RA_OF_ASC_NODE": 233.1317,
		"ARG_OF_PERICENTER": 267.9059,
		"MEAN_ANOMALY": 92.1679,
		"EPHEMERIS_TYPE": 0,
		"CLASSIFICATION_TYPE": "U",
		"NORAD_CAT_ID": 56876,
		"ELEMENT_SET_NO": 999,
		"REV_AT_EPOCH": 7772,
		"BSTAR": 0.0005747,
		"MEAN_MOTION_DOT": 7.57e-5,
		"MEAN_MOTION_DDOT": 0
	},
	{
		"OBJECT_NAME": "STARLINK-6209",
		"OBJECT_ID": "2023-083B",
		"EPOCH": "2024-11-03T01:31:48.727488",
		"MEAN_MOTION": 15.02527651,
		"ECCENTRICITY": 0.0002115,
		"INCLINATION": 43.0051,
		"RA_OF_ASC_NODE": 233.4346,
		"ARG_OF_PERICENTER": 257.008,
		"MEAN_ANOMALY": 103.0526,
		"EPHEMERIS_TYPE": 0,
		"CLASSIFICATION_TYPE": "U",
		"NORAD_CAT_ID": 56877,
		"ELEMENT_SET_NO": 999,
		"REV_AT_EPOCH": 7771,
		"BSTAR": 0.00027486,
		"MEAN_MOTION_DOT": 3.51e-5,
		"MEAN_MOTION_DDOT": 0
	},
	{
		"OBJECT_NAME": "STARLINK-6182",
		"OBJECT_ID": "2023-083C",
		"EPOCH": "2024-11-03T04:52:52.189248",
		"MEAN_MOTION": 15.02530908,
		"ECCENTRICITY": 1.49e-5,
		"INCLINATION": 42.9994,
		"RA_OF_ASC_NODE": 232.7629,
		"ARG_OF_PERICENTER": 252.5782,
		"MEAN_ANOMALY": 107.5044,
		"EPHEMERIS_TYPE": 0,
		"CLASSIFICATION_TYPE": "U",
		"NORAD_CAT_ID": 56878,
		"ELEMENT_SET_NO": 999,
		"REV_AT_EPOCH": 7773,
		"BSTAR": 0.00099574,
		"MEAN_MOTION_DOT": 0.00013271,
		"MEAN_MOTION_DDOT": 0
	},
	{
		"OBJECT_NAME": "STARLINK-5707",
		"OBJECT_ID": "2023-083D",
		"EPOCH": "2024-11-03T03:12:19.927872",
		"MEAN_MOTION": 15.02533191,
		"ECCENTRICITY": 0.0001291,
		"INCLINATION": 43.0041,
		"RA_OF_ASC_NODE": 233.0992,
		"ARG_OF_PERICENTER": 268.904,
		"MEAN_ANOMALY": 91.1655,
		"EPHEMERIS_TYPE": 0,
		"CLASSIFICATION_TYPE": "U",
		"NORAD_CAT_ID": 56879,
		"ELEMENT_SET_NO": 999,
		"REV_AT_EPOCH": 7772,
		"BSTAR": 0.00021819,
		"MEAN_MOTION_DOT": 2.745e-5,
		"MEAN_MOTION_DDOT": 0
	},
	{
		"OBJECT_NAME": "STARLINK-6177",
		"OBJECT_ID": "2023-083E",
		"EPOCH": "2024-11-03T12:32:18.712320",
		"MEAN_MOTION": 15.02535412,
		"ECCENTRICITY": 0.0001575,
		"INCLINATION": 43.0027,
		"RA_OF_ASC_NODE": 230.8541,
		"ARG_OF_PERICENTER": 264.5771,
		"MEAN_ANOMALY": 95.4891,
		"EPHEMERIS_TYPE": 0,
		"CLASSIFICATION_TYPE": "U",
		"NORAD_CAT_ID": 56880,
		"ELEMENT_SET_NO": 999,
		"REV_AT_EPOCH": 7778,
		"BSTAR": 0.00016084,
		"MEAN_MOTION_DOT": 1.97e-5,
		"MEAN_MOTION_DDOT": 0
	},
	{
		"OBJECT_NAME": "STARLINK-5853",
		"OBJECT_ID": "2023-083F",
		"EPOCH": "2024-11-03T04:44:49.000704",
		"MEAN_MOTION": 15.02571192,
		"ECCENTRICITY": 7.78e-5,
		"INCLINATION": 43.0024,
		"RA_OF_ASC_NODE": 232.723,
		"ARG_OF_PERICENTER": 305.4501,
		"MEAN_ANOMALY": 54.6268,
		"EPHEMERIS_TYPE": 0,
		"CLASSIFICATION_TYPE": "U",
		"NORAD_CAT_ID": 56881,
		"ELEMENT_SET_NO": 999,
		"REV_AT_EPOCH": 7773,
		"BSTAR": 0.00036658,
		"MEAN_MOTION_DOT": 4.756e-5,
		"MEAN_MOTION_DDOT": 0
	},
	{
		"OBJECT_NAME": "STARLINK-6175",
		"OBJECT_ID": "2023-083G",
		"EPOCH": "2024-11-03T12:24:18.810432",
		"MEAN_MOTION": 15.02560637,
		"ECCENTRICITY": 0.0001247,
		"INCLINATION": 43.0072,
		"RA_OF_ASC_NODE": 230.8137,
		"ARG_OF_PERICENTER": 277.7015,
		"MEAN_ANOMALY": 82.3685,
		"EPHEMERIS_TYPE": 0,
		"CLASSIFICATION_TYPE": "U",
		"NORAD_CAT_ID": 56882,
		"ELEMENT_SET_NO": 999,
		"REV_AT_EPOCH": 7778,
		"BSTAR": 0.00091646,
		"MEAN_MOTION_DOT": 0.00012206,
		"MEAN_MOTION_DDOT": 0
	},
	{
		"OBJECT_NAME": "STARLINK-6171",
		"OBJECT_ID": "2023-083H",
		"EPOCH": "2024-11-03T04:40:03.985248",
		"MEAN_MOTION": 15.02533297,
		"ECCENTRICITY": 9.87e-5,
		"INCLINATION": 43.0018,
		"RA_OF_ASC_NODE": 232.6876,
		"ARG_OF_PERICENTER": 247.9753,
		"MEAN_ANOMALY": 112.0984,
		"EPHEMERIS_TYPE": 0,
		"CLASSIFICATION_TYPE": "U",
		"NORAD_CAT_ID": 56883,
		"ELEMENT_SET_NO": 999,
		"REV_AT_EPOCH": 7773,
		"BSTAR": 8.8708e-5,
		"MEAN_MOTION_DOT": 9.95e-6,
		"MEAN_MOTION_DDOT": 0
	},
	{
		"OBJECT_NAME": "STARLINK-5515",
		"OBJECT_ID": "2023-083J",
		"EPOCH": "2024-11-03T12:14:43.287072",
		"MEAN_MOTION": 15.02560975,
		"ECCENTRICITY": 0.000165,
		"INCLINATION": 43.001,
		"RA_OF_ASC_NODE": 230.7611,
		"ARG_OF_PERICENTER": 264.3447,
		"MEAN_ANOMALY": 95.7207,
		"EPHEMERIS_TYPE": 0,
		"CLASSIFICATION_TYPE": "U",
		"NORAD_CAT_ID": 56884,
		"ELEMENT_SET_NO": 999,
		"REV_AT_EPOCH": 7778,
		"BSTAR": 0.00098133,
		"MEAN_MOTION_DOT": 0.00013086,
		"MEAN_MOTION_DDOT": 0
	},
	{
		"OBJECT_NAME": "STARLINK-5095",
		"OBJECT_ID": "2023-083K",
		"EPOCH": "2024-11-03T04:35:16.001952",
		"MEAN_MOTION": 15.02557738,
		"ECCENTRICITY": 0.0001566,
		"INCLINATION": 43.002,
		"RA_OF_ASC_NODE": 232.6686,
		"ARG_OF_PERICENTER": 274.6036,
		"MEAN_ANOMALY": 85.4628,
		"EPHEMERIS_TYPE": 0,
		"CLASSIFICATION_TYPE": "U",
		"NORAD_CAT_ID": 56885,
		"ELEMENT_SET_NO": 999,
		"REV_AT_EPOCH": 7773,
		"BSTAR": 0.00095472,
		"MEAN_MOTION_DOT": 0.00012724,
		"MEAN_MOTION_DDOT": 0
	},
	{
		"OBJECT_NAME": "STARLINK-5496",
		"OBJECT_ID": "2023-083L",
		"EPOCH": "2024-11-03T12:13:07.345920",
		"MEAN_MOTION": 15.02554633,
		"ECCENTRICITY": 8.96e-5,
		"INCLINATION": 43.0061,
		"RA_OF_ASC_NODE": 230.7514,
		"ARG_OF_PERICENTER": 260.5513,
		"MEAN_ANOMALY": 99.5228,
		"EPHEMERIS_TYPE": 0,
		"CLASSIFICATION_TYPE": "U",
		"NORAD_CAT_ID": 56886,
		"ELEMENT_SET_NO": 999,
		"REV_AT_EPOCH": 7778,
		"BSTAR": 0.00020323,
		"MEAN_MOTION_DOT": 2.544e-5,
		"MEAN_MOTION_DDOT": 0
	},
	{
		"OBJECT_NAME": "STARLINK-6180",
		"OBJECT_ID": "2023-083M",
		"EPOCH": "2024-11-03T12:19:30.770112",
		"MEAN_MOTION": 15.02555826,
		"ECCENTRICITY": 0.0001428,
		"INCLINATION": 43.0035,
		"RA_OF_ASC_NODE": 230.7863,
		"ARG_OF_PERICENTER": 265.5845,
		"MEAN_ANOMALY": 94.4834,
		"EPHEMERIS_TYPE": 0,
		"CLASSIFICATION_TYPE": "U",
		"NORAD_CAT_ID": 56887,
		"ELEMENT_SET_NO": 999,
		"REV_AT_EPOCH": 7778,
		"BSTAR": 0.00035261,
		"MEAN_MOTION_DOT": 4.565e-5,
		"MEAN_MOTION_DDOT": 0
	},
	{
		"OBJECT_NAME": "STARLINK-6181",
		"OBJECT_ID": "2023-083N",
		"EPOCH": "2024-11-03T11:53:56.989536",
		"MEAN_MOTION": 15.02546389,
		"ECCENTRICITY": 0.0001723,
		"INCLINATION": 43.0018,
		"RA_OF_ASC_NODE": 230.6505,
		"ARG_OF_PERICENTER": 269.5517,
		"MEAN_ANOMALY": 90.5128,
		"EPHEMERIS_TYPE": 0,
		"CLASSIFICATION_TYPE": "U",
		"NORAD_CAT_ID": 56888,
		"ELEMENT_SET_NO": 999,
		"REV_AT_EPOCH": 7778,
		"BSTAR": 0.00028836,
		"MEAN_MOTION_DOT": 3.695e-5,
		"MEAN_MOTION_DDOT": 0
	},
	{
		"OBJECT_NAME": "STARLINK-6169",
		"OBJECT_ID": "2023-083P",
		"EPOCH": "2024-11-03T12:08:19.524192",
		"MEAN_MOTION": 15.02553666,
		"ECCENTRICITY": 0.0001575,
		"INCLINATION": 43.0031,
		"RA_OF_ASC_NODE": 230.7289,
		"ARG_OF_PERICENTER": 266.3397,
		"MEAN_ANOMALY": 93.7265,
		"EPHEMERIS_TYPE": 0,
		"CLASSIFICATION_TYPE": "U",
		"NORAD_CAT_ID": 56889,
		"ELEMENT_SET_NO": 999,
		"REV_AT_EPOCH": 7778,
		"BSTAR": 0.00031767,
		"MEAN_MOTION_DOT": 4.092e-5,
		"MEAN_MOTION_DDOT": 0
	},
	{
		"OBJECT_NAME": "STARLINK-5528",
		"OBJECT_ID": "2023-083Q",
		"EPOCH": "2024-11-03T11:55:32.731968",
		"MEAN_MOTION": 15.02545583,
		"ECCENTRICITY": 0.0001705,
		"INCLINATION": 43.0031,
		"RA_OF_ASC_NODE": 230.6611,
		"ARG_OF_PERICENTER": 268.2731,
		"MEAN_ANOMALY": 91.7916,
		"EPHEMERIS_TYPE": 0,
		"CLASSIFICATION_TYPE": "U",
		"NORAD_CAT_ID": 56890,
		"ELEMENT_SET_NO": 999,
		"REV_AT_EPOCH": 7778,
		"BSTAR": 0.00043484,
		"MEAN_MOTION_DOT": 5.677e-5,
		"MEAN_MOTION_DDOT": 0
	}
]
